{
  "type": "FeatureCollection",
  "features": [
    {
      "type": "Feature",
      "properties": {},
      "geometry": {
        "type": "Polygon",
        "coordinates": [
          [
            [
              128.5,
              31
            ],
            [
              129,
              34.8
            ],
            [
              132,
              36.5
            ],
            [
              136,
              38
            ],
            [
              139.5,
              43
            ],
            [
              141.5,
              46.2
            ],
            [
              147.2,
              44.5
            ],
            [
              142.5,
              38
            ],
            [
              141.5,
              35.5
            ],
            [
              139,
              34
            ],
            [
              135.5,
              33
            ],
            [
              132.5,
              32.2
            ],
            [
              130.5,
              30.5
            ],
            [
              128.5,
              31
            ]
          ]
        ]
      }
    }
  ]
}
